COSMOS 2251 DEB         
1 35830U 93036ATC 26073.33803828  .00003908  00000+0  15677-2 0  9990
2 35830  73.8596  99.6191 0116920  48.7837 312.3315 14.24884016625683
COSMOS 2251 DEB         
1 35834U 93036ATG 26073.47539738  .00000098  00000+0  62612-4 0  9995
2 35834  73.9321 141.2900 0112278 282.0200  93.3458 14.13066372675599
COSMOS 2251 DEB         
1 35835U 93036ATH 26072.36129337  .00001909  00000+0  12584-2 0  9996
2 35835  74.0608 116.0243 0295742 237.3515 119.8762 13.83247246629521
COSMOS 2251 DEB         
1 35836U 93036ATJ 26072.47034814  .00013762  00000+0  21072-2 0  9996
2 35836  74.0338 356.3351 0019484  31.7473 328.4870 14.73601554648555
COSMOS 2251 DEB         
1 35837U 93036ATK 26069.66517656  .00009063  00000+0  62235-2 0  9999
2 35837  73.7319  61.2489 0418823 327.4337 151.5291 13.64468575591753
COSMOS 2251 DEB         
1 35840U 93036ATN 26073.47836117  .00005651  00000+0  16998-2 0  9997
2 35840  73.9334 347.9779 0116225 230.1573 128.9312 14.38987940866105
COSMOS 2251 DEB         
1 35883U 93036ATW 26045.05966612  .00001122  00000+0  28014-3 0  9993
2 35883  74.0248 310.8888 0081984  63.4989 357.8793 14.50773681633049
COSMOS 2251 DEB         
1 35884U 93036ATX 26045.84938336  .00002306  00000+0  91070-3 0  9990
2 35884  73.9877 219.8695 0111884 351.2575   8.6619 14.26226388232719
COSMOS 2251 DEB         
1 35885U 93036ATY 26073.41351269  .00000704  00000+0  24206-3 0  9996
2 35885  74.0270 125.9832 0024033 192.1487 167.9090 14.37708877663330
COSMOS 2251 DEB         
1 35888U 93036AUB 26073.00015329  .00002010  00000+0  42945-3 0  9990
2 35888  74.0354 182.8950 0050945 291.0246  68.5473 14.58732559876044
COSMOS 2251 DEB         
1 35890U 93036AUD 26055.79592786  .00005439  00000+0  11440-2 0  9999
2 35890  73.9365 100.9469 0055694 215.1733 144.5751 14.58817255662300
COSMOS 2251 DEB         
1 35891U 93036AUE 26067.92119079  .00072861  00000+0  16061-2 0  9995
2 35891  73.9832 267.6989 0034436  14.4780 345.7407 15.42946288685458
COSMOS 2251 DEB         
1 35898U 93036AUM 26067.52386754  .00011776  00000+0  97609-3 0  9990
2 35898  73.9894 123.8265 0080920 247.0296 179.8153 14.96324912680921
COSMOS 2251 DEB         
1 35901U 93036AUQ 26073.58563963  .00159138  00000+0  65521-2 0  9999
2 35901  74.0051 191.6970 0006278 332.9515  40.5552 15.23336683875170
COSMOS 2251 DEB         
1 35902U 93036AUR 26060.48561524  .00002240  00000+0  87332-3 0  9992
2 35902  73.9812  91.5985 0102783 191.4251 168.4565 14.27401531622533
COSMOS 2251 DEB         
1 35905U 93036AUU 26072.55331575  .00010597  00000+0  77721-3 0  9992
2 35905  74.0329  26.2013 0084575  82.7070 278.3721 15.00693679899446
